[{"OBJECT_NAME":"BREEZE-M DEB","OBJECT_ID":"2015-075E","EPOCH":"2026-03-02T01:48:04.005504","MEAN_MOTION":1.05680734,"ECCENTRICITY":0.03195336,"INCLINATION":8.156,"RA_OF_ASC_NODE":60.815,"ARG_OF_PERICENTER":172.1673,"MEAN_ANOMALY":188.5043,"EPHEMERIS_TYPE":0,"CLASSIFICATION_TYPE":"U","NORAD_CAT_ID":41544,"ELEMENT_SET_NO":999,"REV_AT_EPOCH":3910,"BSTAR":0,"MEAN_MOTION_DOT":-1.96e-6,"MEAN_MOTION_DDOT":0},{"OBJECT_NAME":"BREEZE-M DEB","OBJECT_ID":"2015-075H","EPOCH":"2026-02-28T04:59:24.201600","MEAN_MOTION":1.03190161,"ECCENTRICITY":0.0265824,"INCLINATION":8.3949,"RA_OF_ASC_NODE":63.1852,"ARG_OF_PERICENTER":136.518,"MEAN_ANOMALY":225.7521,"EPHEMERIS_TYPE":0,"CLASSIFICATION_TYPE":"U","NORAD_CAT_ID":41547,"ELEMENT_SET_NO":999,"REV_AT_EPOCH":3815,"BSTAR":0,"MEAN_MOTION_DOT":-6.6e-7,"MEAN_MOTION_DDOT":0},{"OBJECT_NAME":"BREEZE-M DEB","OBJECT_ID":"2015-075J","EPOCH":"2026-03-01T00:58:08.650560","MEAN_MOTION":1.02195101,"ECCENTRICITY":0.0368682,"INCLINATION":8.4466,"RA_OF_ASC_NODE":56.9669,"ARG_OF_PERICENTER":133.288,"MEAN_ANOMALY":230.0034,"EPHEMERIS_TYPE":0,"CLASSIFICATION_TYPE":"U","NORAD_CAT_ID":41548,"ELEMENT_SET_NO":999,"REV_AT_EPOCH":3816,"BSTAR":0,"MEAN_MOTION_DOT":-2.64e-6,"MEAN_MOTION_DDOT":0},{"OBJECT_NAME":"THAICOM 8","OBJECT_ID":"2016-031A","EPOCH":"2026-03-03T02:28:04.224288","MEAN_MOTION":1.00272417,"ECCENTRICITY":0.0004008,"INCLINATION":0.0664,"RA_OF_ASC_NODE":45.9247,"ARG_OF_PERICENTER":303.7052,"MEAN_ANOMALY":286.7894,"EPHEMERIS_TYPE":0,"CLASSIFICATION_TYPE":"U","NORAD_CAT_ID":41552,"ELEMENT_SET_NO":999,"REV_AT_EPOCH":3565,"BSTAR":0,"MEAN_MOTION_DOT":-1.37e-6,"MEAN_MOTION_DDOT":0},{"OBJECT_NAME":"INTELSAT 31 (IS-31)","OBJECT_ID":"2016-035A","EPOCH":"2026-03-02T23:55:58.944864","MEAN_MOTION":1.00272767,"ECCENTRICITY":0.0001857,"INCLINATION":0.0379,"RA_OF_ASC_NODE":251.7446,"ARG_OF_PERICENTER":342.4059,"MEAN_ANOMALY":190.5537,"EPHEMERIS_TYPE":0,"CLASSIFICATION_TYPE":"U","NORAD_CAT_ID":41581,"ELEMENT_SET_NO":999,"REV_AT_EPOCH":3561,"BSTAR":0,"MEAN_MOTION_DOT":-1.67e-6,"MEAN_MOTION_DDOT":0},{"OBJECT_NAME":"BREEZE-M R/B","OBJECT_ID":"2016-035B","EPOCH":"2026-02-26T00:20:29.632704","MEAN_MOTION":1.12664552,"ECCENTRICITY":0.7906712,"INCLINATION":31.826,"RA_OF_ASC_NODE":305.9659,"ARG_OF_PERICENTER":131.103,"MEAN_ANOMALY":329.7116,"EPHEMERIS_TYPE":0,"CLASSIFICATION_TYPE":"U","NORAD_CAT_ID":41582,"ELEMENT_SET_NO":999,"REV_AT_EPOCH":3998,"BSTAR":0,"MEAN_MOTION_DOT":-2.1e-7,"MEAN_MOTION_DDOT":0},{"OBJECT_NAME":"DELTA 4 R/B","OBJECT_ID":"2016-036B","EPOCH":"2026-03-03T00:34:33.804768","MEAN_MOTION":1.0407908,"ECCENTRICITY":0.0229276,"INCLINATION":5.5573,"RA_OF_ASC_NODE":357.8604,"ARG_OF_PERICENTER":253.1066,"MEAN_ANOMALY":104.4706,"EPHEMERIS_TYPE":0,"CLASSIFICATION_TYPE":"U","NORAD_CAT_ID":41585,"ELEMENT_SET_NO":999,"REV_AT_EPOCH":2462,"BSTAR":0,"MEAN_MOTION_DOT":-9.8e-7,"MEAN_MOTION_DDOT":0},{"OBJECT_NAME":"BEIDOU-2 G7","OBJECT_ID":"2016-037A","EPOCH":"2026-03-03T00:54:30.835296","MEAN_MOTION":1.00267923,"ECCENTRICITY":0.0007452,"INCLINATION":1.4579,"RA_OF_ASC_NODE":68.177,"ARG_OF_PERICENTER":341.7171,"MEAN_ANOMALY":235.0587,"EPHEMERIS_TYPE":0,"CLASSIFICATION_TYPE":"U","NORAD_CAT_ID":41586,"ELEMENT_SET_NO":999,"REV_AT_EPOCH":582,"BSTAR":0,"MEAN_MOTION_DOT":-3.68e-6,"MEAN_MOTION_DDOT":0},{"OBJECT_NAME":"ABS-2A (MONGOLSAT-1)","OBJECT_ID":"2016-038A","EPOCH":"2026-03-03T02:27:04.318848","MEAN_MOTION":1.00270714,"ECCENTRICITY":0.0002019,"INCLINATION":0.0112,"RA_OF_ASC_NODE":128.9446,"ARG_OF_PERICENTER":161.7959,"MEAN_ANOMALY":341.6003,"EPHEMERIS_TYPE":0,"CLASSIFICATION_TYPE":"U","NORAD_CAT_ID":41588,"ELEMENT_SET_NO":999,"REV_AT_EPOCH":3564,"BSTAR":0,"MEAN_MOTION_DOT":-9.9e-7,"MEAN_MOTION_DDOT":0},{"OBJECT_NAME":"EUTELSAT 117 WEST B","OBJECT_ID":"2016-038B","EPOCH":"2026-03-03T03:49:38.807616","MEAN_MOTION":1.0027134,"ECCENTRICITY":8.6e-6,"INCLINATION":0.0363,"RA_OF_ASC_NODE":3.058,"ARG_OF_PERICENTER":185.7502,"MEAN_ANOMALY":272.5261,"EPHEMERIS_TYPE":0,"CLASSIFICATION_TYPE":"U","NORAD_CAT_ID":41589,"ELEMENT_SET_NO":999,"REV_AT_EPOCH":3560,"BSTAR":0,"MEAN_MOTION_DOT":-2.7e-7,"MEAN_MOTION_DDOT":0},{"OBJECT_NAME":"FALCON 9 R/B","OBJECT_ID":"2016-038C","EPOCH":"2026-03-01T19:15:07.164864","MEAN_MOTION":1.45721919,"ECCENTRICITY":0.79606591,"INCLINATION":23.7902,"RA_OF_ASC_NODE":344.7877,"ARG_OF_PERICENTER":269.2277,"MEAN_ANOMALY":10.0452,"EPHEMERIS_TYPE":0,"CLASSIFICATION_TYPE":"U","NORAD_CAT_ID":41590,"ELEMENT_SET_NO":999,"REV_AT_EPOCH":4450,"BSTAR":-6.0761409e-5,"MEAN_MOTION_DOT":-9.4e-7,"MEAN_MOTION_DDOT":0},{"OBJECT_NAME":"BRISAT","OBJECT_ID":"2016-039A","EPOCH":"2026-03-02T20:51:38.511936","MEAN_MOTION":1.00268901,"ECCENTRICITY":0.000221,"INCLINATION":0.0188,"RA_OF_ASC_NODE":154.9227,"ARG_OF_PERICENTER":186.3239,"MEAN_ANOMALY":282.8122,"EPHEMERIS_TYPE":0,"CLASSIFICATION_TYPE":"U","NORAD_CAT_ID":41591,"ELEMENT_SET_NO":999,"REV_AT_EPOCH":3554,"BSTAR":0,"MEAN_MOTION_DOT":0,"MEAN_MOTION_DDOT":0},{"OBJECT_NAME":"ECHOSTAR 18","OBJECT_ID":"2016-039B","EPOCH":"2026-03-03T03:17:38.596128","MEAN_MOTION":1.00271125,"ECCENTRICITY":0.0001603,"INCLINATION":0.0158,"RA_OF_ASC_NODE":122.2592,"ARG_OF_PERICENTER":216.4329,"MEAN_ANOMALY":170.24,"EPHEMERIS_TYPE":0,"CLASSIFICATION_TYPE":"U","NORAD_CAT_ID":41592,"ELEMENT_SET_NO":999,"REV_AT_EPOCH":3556,"BSTAR":0,"MEAN_MOTION_DOT":-2.98e-6,"MEAN_MOTION_DDOT":0},{"OBJECT_NAME":"MUOS-5","OBJECT_ID":"2016-041A","EPOCH":"2026-03-03T03:49:38.807616","MEAN_MOTION":1.0027158,"ECCENTRICITY":0.0195257,"INCLINATION":2.4341,"RA_OF_ASC_NODE":299.8043,"ARG_OF_PERICENTER":262.7736,"MEAN_ANOMALY":270.6811,"EPHEMERIS_TYPE":0,"CLASSIFICATION_TYPE":"U","NORAD_CAT_ID":41622,"ELEMENT_SET_NO":999,"REV_AT_EPOCH":3602,"BSTAR":0,"MEAN_MOTION_DOT":-1.71e-6,"MEAN_MOTION_DDOT":0},{"OBJECT_NAME":"TIANTONG-1 1","OBJECT_ID":"2016-048A","EPOCH":"2026-03-03T00:51:53.586432","MEAN_MOTION":1.00273028,"ECCENTRICITY":0.0005489,"INCLINATION":3.6479,"RA_OF_ASC_NODE":42.4191,"ARG_OF_PERICENTER":353.3943,"MEAN_ANOMALY":239.3747,"EPHEMERIS_TYPE":0,"CLASSIFICATION_TYPE":"U","NORAD_CAT_ID":41725,"ELEMENT_SET_NO":999,"REV_AT_EPOCH":3520,"BSTAR":0,"MEAN_MOTION_DOT":-3.31e-6,"MEAN_MOTION_DDOT":0},{"OBJECT_NAME":"JCSAT-16","OBJECT_ID":"2016-050A","EPOCH":"2026-03-02T20:51:38.511936","MEAN_MOTION":1.00270478,"ECCENTRICITY":0.0001102,"INCLINATION":0.0154,"RA_OF_ASC_NODE":130.155,"ARG_OF_PERICENTER":215.203,"MEAN_ANOMALY":272.1189,"EPHEMERIS_TYPE":0,"CLASSIFICATION_TYPE":"U","NORAD_CAT_ID":41729,"ELEMENT_SET_NO":999,"REV_AT_EPOCH":3500,"BSTAR":0,"MEAN_MOTION_DOT":-2.68e-6,"MEAN_MOTION_DDOT":0},{"OBJECT_NAME":"USA 270","OBJECT_ID":"2016-052A","EPOCH":"2026-02-20T16:59:52.340352","MEAN_MOTION":1.00327485,"ECCENTRICITY":0.0003302,"INCLINATION":3.8986,"RA_OF_ASC_NODE":78.691,"ARG_OF_PERICENTER":288.5278,"MEAN_ANOMALY":204.8551,"EPHEMERIS_TYPE":0,"CLASSIFICATION_TYPE":"U","NORAD_CAT_ID":41744,"ELEMENT_SET_NO":999,"REV_AT_EPOCH":2696,"BSTAR":0,"MEAN_MOTION_DOT":-3.6e-7,"MEAN_MOTION_DDOT":0}]
