BREEZE-M DEB            
1 41544U 15075E   26061.07504636 -.00000196  00000+0  00000+0 0  9997
2 41544   8.1560  60.8150 0319533 172.1673 188.5043  1.05680734 39107
BREEZE-M DEB            
1 41547U 15075H   26059.20791900 -.00000066  00000+0  00000+0 0  9990
2 41547   8.3949  63.1852 0265824 136.5180 225.7521  1.03190161 38155
BREEZE-M DEB            
1 41548U 15075J   26060.04037790 -.00000264  00000+0  00000+0 0  9995
2 41548   8.4466  56.9669 0368682 133.2880 230.0034  1.02195101 38161
THAICOM 8               
1 41552U 16031A   26062.10282667 -.00000137  00000+0  00000+0 0  9996
2 41552   0.0664  45.9247 0004008 303.7052 286.7894  1.00272417 35655
INTELSAT 31 (IS-31)     
1 41581U 16035A   26061.99721001 -.00000167  00000+0  00000+0 0  9991
2 41581   0.0379 251.7446 0001857 342.4059 190.5537  1.00272767 35614
BREEZE-M R/B            
1 41582U 16035B   26057.01423186 -.00000021  00000+0  00000+0 0  9992
2 41582  31.8260 305.9659 7906712 131.1030 329.7116  1.12664552 39980
DELTA 4 R/B             
1 41585U 16036B   26062.02400237 -.00000098  00000+0  00000+0 0  9999
2 41585   5.5573 357.8604 0229276 253.1066 104.4706  1.04079080 24629
BEIDOU-2 G7             
1 41586U 16037A   26062.03785689 -.00000368  00000+0  00000+0 0  9999
2 41586   1.4579  68.1770 0007452 341.7171 235.0587  1.00267923  5828
ABS-2A (MONGOLSAT-1)    
1 41588U 16038A   26062.10213332 -.00000099  00000+0  00000+0 0  9992
2 41588   0.0112 128.9446 0002019 161.7959 341.6003  1.00270714 35643
EUTELSAT 117 WEST B     
1 41589U 16038B   26062.15947694 -.00000027  00000+0  00000+0 0  9994
2 41589   0.0363   3.0580 0000086 185.7502 272.5261  1.00271340 35606
FALCON 9 R/B            
1 41590U 16038C   26060.80216626 -.00000094  00000+0 -60761-4 0  9990
2 41590  23.7902 344.7877 7960659 269.2277  10.0452  1.45721919 44505
BRISAT                  
1 41591U 16039A   26061.86919574  .00000000  00000+0  00000+0 0  9991
2 41591   0.0188 154.9227 0002210 186.3239 282.8122  1.00268901 35545
ECHOSTAR 18             
1 41592U 16039B   26062.13725227 -.00000298  00000+0  00000+0 0  9993
2 41592   0.0158 122.2592 0001603 216.4329 170.2400  1.00271125 35569
MUOS-5                  
1 41622U 16041A   26062.15947694 -.00000171  00000+0  00000+0 0  9996
2 41622   2.4341 299.8043 0195257 262.7736 270.6811  1.00271580 36028
TIANTONG-1 1            
1 41725U 16048A   26062.03603688 -.00000331  00000+0  00000+0 0  9994
2 41725   3.6479  42.4191 0005489 353.3943 239.3747  1.00273028 35205
JCSAT-16                
1 41729U 16050A   26061.86919574 -.00000268  00000+0  00000+0 0  9994
2 41729   0.0154 130.1550 0001102 215.2030 272.1189  1.00270478 35004
USA 270                 
1 41744U 16052A   26051.70824468 -.00000036  00000+0  00000+0 0  9995
2 41744   3.8986  78.6910 0003302 288.5278 204.8551  1.00327485 26963
